STARLINK-11731 [DTC]    
1 64371U 25127B   25259.56380000  .00298881  00000+0  22516-2 0  9996
2 64371  42.9985  54.4035 0004016 293.7133  66.3313 15.70818904 16114
STARLINK-11746 [DTC]    
1 64372U 25127C   25259.46835975  .00228197  00000+0  17332-2 0  9995
2 64372  42.9996  54.5306 0001767 273.5123  86.5543 15.70843752 16101
STARLINK-11748 [DTC]    
1 64373U 25127D   25259.13023441  .00240343  00000+0  18151-2 0  9994
2 64373  42.9976  57.1797 0002976 280.7024  79.3508 15.70940399 16045
STARLINK-11739 [DTC]    
1 64374U 25127E   25259.45242667  .00264609  00000+0  19970-2 0  9994
2 64374  42.9999  54.4024 0001610 247.3306 112.7391 15.70884032 16100
STARLINK-11738 [DTC]    
1 64375U 25127F   25258.74782908  .00224039  00000+0  16970-2 0  9993
2 64375  42.9984  59.4713 0000742 237.9075 122.1721 15.70921616 15985
STARLINK-11745 [DTC]    
1 64376U 25127G   25259.60614407  .00248029  00000+0  18451-2 0  9999
2 64376  43.0021  53.8478 0004094 236.6839 123.3637 15.71272159 16122
STARLINK-11742 [DTC]    
1 64377U 25127H   25259.55849041  .00246274  00000+0  18725-2 0  9992
2 64377  42.9983  54.3588 0003843 295.6512  64.3959 15.70758328 16116
STARLINK-11711 [DTC]    
1 64378U 25127J   25259.14513011  .00244965  00000+0  18459-2 0  9992
2 64378  43.0005  56.4012 0001892 290.7490  69.3175 15.70981319 16160
STARLINK-11743 [DTC]    
1 64379U 25127K   25259.56911082  .00205910  00000+0  15715-2 0  9998
2 64379  42.9994  54.4454 0003856 290.9224  69.1231 15.70793793 16116
STARLINK-11744 [DTC]    
1 64380U 25127L   25259.55317996  .00284910  00000+0  21543-2 0  9996
2 64380  42.9979  54.3179 0000661 223.2555 136.8261 15.70775645 16112
STARLINK-11692 [DTC]    
1 64381U 25127M   25259.47366581  .00250748  00000+0  18970-2 0  9994
2 64381  42.9971  54.5714 0001452 259.5901 100.4803 15.70868350 16214
STARLINK-11740 [DTC]    
1 64382U 25127N   25259.45774144  .00301095  00000+0  22632-2 0  9993
2 64382  42.9985  54.4433 0001500 255.8463 104.2238 15.70869956 16108
STARLINK-34299          
1 64383U 25127P   25259.50672872  .00009294  00000+0  34668-3 0  9994
2 64383  43.0017  83.8574 0001671 265.7799  94.2862 15.27594824 15774
STARLINK-34271          
1 64384U 25127Q   25258.51437856  .00024463  00000+0  89556-3 0  9997
2 64384  43.0027  89.3050 0001099 278.8446  81.2282 15.27579961 15670
STARLINK-34100          
1 64385U 25127R   25259.23749409  .00021471  00000+0  78693-3 0  9994
2 64385  43.0042  85.2751 0001485 270.5940  89.4742 15.27604085 15732
STARLINK-34269          
1 64386U 25127S   25258.79889764  .00021021  00000+0  77061-3 0  9993
2 64386  42.9998  87.1321 0001398 270.7710  89.2981 15.27606090 15725
