[{"OBJECT_NAME":"STARLINK-11731 [DTC]","OBJECT_ID":"2025-127B","EPOCH":"2025-09-16T13:31:52.320000","MEAN_MOTION":15.70818904,"ECCENTRICITY":0.0004016,"INCLINATION":42.9985,"RA_OF_ASC_NODE":54.4035,"ARG_OF_PERICENTER":293.7133,"MEAN_ANOMALY":66.3313,"EPHEMERIS_TYPE":0,"CLASSIFICATION_TYPE":"U","NORAD_CAT_ID":64371,"ELEMENT_SET_NO":999,"REV_AT_EPOCH":1611,"BSTAR":0.0022516133,"MEAN_MOTION_DOT":0.00298881,"MEAN_MOTION_DDOT":0},{"OBJECT_NAME":"STARLINK-11746 [DTC]","OBJECT_ID":"2025-127C","EPOCH":"2025-09-16T11:14:26.282400","MEAN_MOTION":15.70843752,"ECCENTRICITY":0.00017673,"INCLINATION":42.9996,"RA_OF_ASC_NODE":54.5306,"ARG_OF_PERICENTER":273.5123,"MEAN_ANOMALY":86.5543,"EPHEMERIS_TYPE":0,"CLASSIFICATION_TYPE":"U","NORAD_CAT_ID":64372,"ELEMENT_SET_NO":999,"REV_AT_EPOCH":1610,"BSTAR":0.0017332206,"MEAN_MOTION_DOT":0.00228197,"MEAN_MOTION_DDOT":0},{"OBJECT_NAME":"STARLINK-11748 [DTC]","OBJECT_ID":"2025-127D","EPOCH":"2025-09-16T03:07:32.253024","MEAN_MOTION":15.70940399,"ECCENTRICITY":0.00029763,"INCLINATION":42.9976,"RA_OF_ASC_NODE":57.1797,"ARG_OF_PERICENTER":280.7024,"MEAN_ANOMALY":79.3508,"EPHEMERIS_TYPE":0,"CLASSIFICATION_TYPE":"U","NORAD_CAT_ID":64373,"ELEMENT_SET_NO":999,"REV_AT_EPOCH":1604,"BSTAR":0.0018151002,"MEAN_MOTION_DOT":0.00240343,"MEAN_MOTION_DDOT":0},{"OBJECT_NAME":"STARLINK-11739 [DTC]","OBJECT_ID":"2025-127E","EPOCH":"2025-09-16T10:51:29.664288","MEAN_MOTION":15.70884032,"ECCENTRICITY":0.00016106,"INCLINATION":42.9999,"RA_OF_ASC_NODE":54.4024,"ARG_OF_PERICENTER":247.3306,"MEAN_ANOMALY":112.7391,"EPHEMERIS_TYPE":0,"CLASSIFICATION_TYPE":"U","NORAD_CAT_ID":64374,"ELEMENT_SET_NO":999,"REV_AT_EPOCH":1610,"BSTAR":0.0019969997,"MEAN_MOTION_DOT":0.00264609,"MEAN_MOTION_DDOT":0},{"OBJECT_NAME":"STARLINK-11738 [DTC]","OBJECT_ID":"2025-127F","EPOCH":"2025-09-15T17:56:52.432512","MEAN_MOTION":15.70921616,"ECCENTRICITY":7.421e-5,"INCLINATION":42.9984,"RA_OF_ASC_NODE":59.4713,"ARG_OF_PERICENTER":237.9075,"MEAN_ANOMALY":122.1721,"EPHEMERIS_TYPE":0,"CLASSIFICATION_TYPE":"U","NORAD_CAT_ID":64375,"ELEMENT_SET_NO":999,"REV_AT_EPOCH":1598,"BSTAR":0.001696996,"MEAN_MOTION_DOT":0.00224039,"MEAN_MOTION_DDOT":0},{"OBJECT_NAME":"STARLINK-11745 [DTC]","OBJECT_ID":"2025-127G","EPOCH":"2025-09-16T14:32:50.847648","MEAN_MOTION":15.71272159,"ECCENTRICITY":0.00040941,"INCLINATION":43.0021,"RA_OF_ASC_NODE":53.8478,"ARG_OF_PERICENTER":236.6839,"MEAN_ANOMALY":123.3637,"EPHEMERIS_TYPE":0,"CLASSIFICATION_TYPE":"U","NORAD_CAT_ID":64376,"ELEMENT_SET_NO":999,"REV_AT_EPOCH":1612,"BSTAR":0.0018451454,"MEAN_MOTION_DOT":0.00248029,"MEAN_MOTION_DDOT":0},{"OBJECT_NAME":"STARLINK-11742 [DTC]","OBJECT_ID":"2025-127H","EPOCH":"2025-09-16T13:24:13.571424","MEAN_MOTION":15.70758328,"ECCENTRICITY":0.00038431,"INCLINATION":42.9983,"RA_OF_ASC_NODE":54.3588,"ARG_OF_PERICENTER":295.6512,"MEAN_ANOMALY":64.3959,"EPHEMERIS_TYPE":0,"CLASSIFICATION_TYPE":"U","NORAD_CAT_ID":64377,"ELEMENT_SET_NO":999,"REV_AT_EPOCH":1611,"BSTAR":0.0018725198,"MEAN_MOTION_DOT":0.00246274,"MEAN_MOTION_DDOT":0},{"OBJECT_NAME":"STARLINK-11711 [DTC]","OBJECT_ID":"2025-127J","EPOCH":"2025-09-16T03:28:59.241504","MEAN_MOTION":15.70981319,"ECCENTRICITY":0.00018923,"INCLINATION":43.0005,"RA_OF_ASC_NODE":56.4012,"ARG_OF_PERICENTER":290.749,"MEAN_ANOMALY":69.3175,"EPHEMERIS_TYPE":0,"CLASSIFICATION_TYPE":"U","NORAD_CAT_ID":64378,"ELEMENT_SET_NO":999,"REV_AT_EPOCH":1616,"BSTAR":0.0018458666,"MEAN_MOTION_DOT":0.00244965,"MEAN_MOTION_DDOT":0},{"OBJECT_NAME":"STARLINK-11743 [DTC]","OBJECT_ID":"2025-127K","EPOCH":"2025-09-16T13:39:31.174848","MEAN_MOTION":15.70793793,"ECCENTRICITY":0.0003856,"INCLINATION":42.9994,"RA_OF_ASC_NODE":54.4454,"ARG_OF_PERICENTER":290.9224,"MEAN_ANOMALY":69.1231,"EPHEMERIS_TYPE":0,"CLASSIFICATION_TYPE":"U","NORAD_CAT_ID":64379,"ELEMENT_SET_NO":999,"REV_AT_EPOCH":1611,"BSTAR":0.0015714851,"MEAN_MOTION_DOT":0.0020591,"MEAN_MOTION_DDOT":0},{"OBJECT_NAME":"STARLINK-11744 [DTC]","OBJECT_ID":"2025-127L","EPOCH":"2025-09-16T13:16:34.748544","MEAN_MOTION":15.70775645,"ECCENTRICITY":6.613e-5,"INCLINATION":42.9979,"RA_OF_ASC_NODE":54.3179,"ARG_OF_PERICENTER":223.2555,"MEAN_ANOMALY":136.8261,"EPHEMERIS_TYPE":0,"CLASSIFICATION_TYPE":"U","NORAD_CAT_ID":64380,"ELEMENT_SET_NO":999,"REV_AT_EPOCH":1611,"BSTAR":0.0021543411,"MEAN_MOTION_DOT":0.0028491,"MEAN_MOTION_DDOT":0},{"OBJECT_NAME":"STARLINK-11692 [DTC]","OBJECT_ID":"2025-127M","EPOCH":"2025-09-16T11:22:04.725984","MEAN_MOTION":15.7086835,"ECCENTRICITY":0.00014526,"INCLINATION":42.9971,"RA_OF_ASC_NODE":54.5714,"ARG_OF_PERICENTER":259.5901,"MEAN_ANOMALY":100.4803,"EPHEMERIS_TYPE":0,"CLASSIFICATION_TYPE":"U","NORAD_CAT_ID":64381,"ELEMENT_SET_NO":999,"REV_AT_EPOCH":1621,"BSTAR":0.0018970054,"MEAN_MOTION_DOT":0.00250748,"MEAN_MOTION_DDOT":0},{"OBJECT_NAME":"STARLINK-11740 [DTC]","OBJECT_ID":"2025-127N","EPOCH":"2025-09-16T10:59:08.860416","MEAN_MOTION":15.70869956,"ECCENTRICITY":0.00015002,"INCLINATION":42.9985,"RA_OF_ASC_NODE":54.4433,"ARG_OF_PERICENTER":255.8463,"MEAN_ANOMALY":104.2238,"EPHEMERIS_TYPE":0,"CLASSIFICATION_TYPE":"U","NORAD_CAT_ID":64382,"ELEMENT_SET_NO":999,"REV_AT_EPOCH":1610,"BSTAR":0.0022631621,"MEAN_MOTION_DOT":0.00301095,"MEAN_MOTION_DDOT":0},{"OBJECT_NAME":"STARLINK-34299","OBJECT_ID":"2025-127P","EPOCH":"2025-09-16T12:09:41.361408","MEAN_MOTION":15.27594824,"ECCENTRICITY":0.00016716,"INCLINATION":43.0017,"RA_OF_ASC_NODE":83.8574,"ARG_OF_PERICENTER":265.7799,"MEAN_ANOMALY":94.2862,"EPHEMERIS_TYPE":0,"CLASSIFICATION_TYPE":"U","NORAD_CAT_ID":64383,"ELEMENT_SET_NO":999,"REV_AT_EPOCH":1577,"BSTAR":0.00034668005,"MEAN_MOTION_DOT":9.294e-5,"MEAN_MOTION_DDOT":0},{"OBJECT_NAME":"STARLINK-34271","OBJECT_ID":"2025-127Q","EPOCH":"2025-09-15T12:20:42.307584","MEAN_MOTION":15.27579961,"ECCENTRICITY":0.00010992,"INCLINATION":43.0027,"RA_OF_ASC_NODE":89.305,"ARG_OF_PERICENTER":278.8446,"MEAN_ANOMALY":81.2282,"EPHEMERIS_TYPE":0,"CLASSIFICATION_TYPE":"U","NORAD_CAT_ID":64384,"ELEMENT_SET_NO":999,"REV_AT_EPOCH":1567,"BSTAR":0.00089556022,"MEAN_MOTION_DOT":0.00024463,"MEAN_MOTION_DDOT":0},{"OBJECT_NAME":"STARLINK-34100","OBJECT_ID":"2025-127R","EPOCH":"2025-09-16T05:41:59.489376","MEAN_MOTION":15.27604085,"ECCENTRICITY":0.00014856,"INCLINATION":43.0042,"RA_OF_ASC_NODE":85.2751,"ARG_OF_PERICENTER":270.594,"MEAN_ANOMALY":89.4742,"EPHEMERIS_TYPE":0,"CLASSIFICATION_TYPE":"U","NORAD_CAT_ID":64385,"ELEMENT_SET_NO":999,"REV_AT_EPOCH":1573,"BSTAR":0.00078692842,"MEAN_MOTION_DOT":0.00021471,"MEAN_MOTION_DDOT":0},{"OBJECT_NAME":"STARLINK-34269","OBJECT_ID":"2025-127S","EPOCH":"2025-09-15T19:10:24.756096","MEAN_MOTION":15.2760609,"ECCENTRICITY":0.00013986,"INCLINATION":42.9998,"RA_OF_ASC_NODE":87.1321,"ARG_OF_PERICENTER":270.771,"MEAN_ANOMALY":89.2981,"EPHEMERIS_TYPE":0,"CLASSIFICATION_TYPE":"U","NORAD_CAT_ID":64386,"ELEMENT_SET_NO":999,"REV_AT_EPOCH":1572,"BSTAR":0.00077061029,"MEAN_MOTION_DOT":0.00021021,"MEAN_MOTION_DDOT":0}]
